{
  "norad_id": 62512,
  "name": "STARLINK-11443 [DTC]",
  "history": [
    {
      "epoch": "2026-03-28T15:16:20.208864Z",
      "apogee_km": 356.0956886243739,
      "perigee_km": 356.0391213073717,
      "latitude_deg": 2.6322176073388294e-05,
      "longitude_deg": -98.18862161269011,
      "height_km": 355.8655892410472,
      "semi_major_axis_km": 6734.2044049658725,
      "eccentricity": 4.2e-06,
      "inclination_deg": 42.9952,
      "raan_deg": 316.9495,
      "arg_perigee_deg": 167.4674,
      "mean_anomaly_deg": 192.6195,
      "mean_motion_rev_day": 15.70989637
    },
    {
      "epoch": "2026-03-29T23:19:05.922048Z",
      "apogee_km": 357.4829695619601,
      "perigee_km": 355.19324802496976,
      "latitude_deg": -1.355555109175907e-05,
      "longitude_deg": 131.7553808641793,
      "height_km": 356.2470530519066,
      "semi_major_axis_km": 6734.475108793465,
      "eccentricity": 0.00017,
      "inclination_deg": 42.9987,
      "raan_deg": 308.9001,
      "arg_perigee_deg": 263.1557,
      "mean_anomaly_deg": 96.9117,
      "mean_motion_rev_day": 15.70894915
    },
    {
      "epoch": "2026-03-29T23:19:05.922912Z",
      "apogee_km": 357.48263283820506,
      "perigee_km": 355.1935847487257,
      "latitude_deg": -1.745820078914027e-05,
      "longitude_deg": 131.75537309255816,
      "height_km": 356.2470129296696,
      "semi_major_axis_km": 6734.475108793465,
      "eccentricity": 0.00016995,
      "inclination_deg": 42.9987,
      "raan_deg": 308.9001,
      "arg_perigee_deg": 263.1557,
      "mean_anomaly_deg": 96.9117,
      "mean_motion_rev_day": 15.70894915
    },
    {
      "epoch": "2026-03-30T20:40:56.609184Z",
      "apogee_km": 357.2912110648549,
      "perigee_km": 355.4652146100452,
      "latitude_deg": -4.340664342473036e-05,
      "longitude_deg": 165.05106206220023,
      "height_km": 356.4926686273514,
      "semi_major_axis_km": 6734.515212837449,
      "eccentricity": 0.00013557,
      "inclination_deg": 42.9985,
      "raan_deg": 303.5344,
      "arg_perigee_deg": 247.9774,
      "mean_anomaly_deg": 112.0949,
      "mean_motion_rev_day": 15.70880883
    },
    {
      "epoch": "2026-03-31T07:21:52.108704Z",
      "apogee_km": 356.9343593384365,
      "perigee_km": 355.509369002777,
      "latitude_deg": -1.8142017883041002e-05,
      "longitude_deg": 1.7001440282623128,
      "height_km": 355.487464839761,
      "semi_major_axis_km": 6734.3588641706065,
      "eccentricity": 0.0001058,
      "inclination_deg": 43.0012,
      "raan_deg": 300.8534,
      "arg_perigee_deg": 315.3039,
      "mean_anomaly_deg": 44.7743,
      "mean_motion_rev_day": 15.70935589
    },
    {
      "epoch": "2026-04-01T19:59:17.515968Z",
      "apogee_km": 358.47785638494224,
      "perigee_km": 353.7032890358905,
      "latitude_deg": 2.245731769298787e-05,
      "longitude_deg": 161.6394428110155,
      "height_km": 356.1133188681593,
      "semi_major_axis_km": 6734.227572710416,
      "eccentricity": 0.0003545,
      "inclination_deg": 43.0001,
      "raan_deg": 291.6526,
      "arg_perigee_deg": 264.016,
      "mean_anomaly_deg": 96.0304,
      "mean_motion_rev_day": 15.7098153
    },
    {
      "epoch": "2026-04-02T15:49:33.064608Z",
      "apogee_km": 356.2953825923487,
      "perigee_km": 355.75503341677904,
      "latitude_deg": 6.280947954202928e-05,
      "longitude_deg": -141.72180291544265,
      "height_km": 356.0478006318266,
      "semi_major_axis_km": 6734.162208004564,
      "eccentricity": 4.012e-05,
      "inclination_deg": 42.9947,
      "raan_deg": 286.6708,
      "arg_perigee_deg": 159.0137,
      "mean_anomaly_deg": 201.0748,
      "mean_motion_rev_day": 15.71004403
    },
    {
      "epoch": "2026-04-03T11:39:49.766688Z",
      "apogee_km": 356.914925542932,
      "perigee_km": 355.62407450500814,
      "latitude_deg": -9.73261487703305e-06,
      "longitude_deg": -85.08528867636143,
      "height_km": 356.4734280000947,
      "semi_major_axis_km": 6734.40650002397,
      "eccentricity": 9.584e-05,
      "inclination_deg": 42.9956,
      "raan_deg": 281.6917,
      "arg_perigee_deg": 227.9066,
      "mean_anomaly_deg": 132.172,
      "mean_motion_rev_day": 15.70918921
    },
    {
      "epoch": "2026-04-04T12:04:48.317664Z",
      "apogee_km": 358.2616108295533,
      "perigee_km": 353.9768729530879,
      "latitude_deg": 2.003428528051194e-05,
      "longitude_deg": -98.46646018958587,
      "height_km": 356.19077119469796,
      "semi_major_axis_km": 6734.25624189132,
      "eccentricity": 0.00031813,
      "inclination_deg": 43.0019,
      "raan_deg": 275.5572,
      "arg_perigee_deg": 262.0131,
      "mean_anomaly_deg": 98.0376,
      "mean_motion_rev_day": 15.70971498
    }
  ]
}